YAOGAN 27               
1 40878U 15040A   17345.90120708 -.00000044  00000-0  00000-0 0  9993
2 40878 100.3729  43.3575 0008840 161.7015 198.4419 13.15957514110198
